OKEAN-3                 
1 21397U 91039A   25312.48402233  .00005604  00000+0  40529-3 0  9990
2 21397  82.5162  94.1936 0015035  27.1690 333.0319 15.03766763846812
COSMOS 2151             
1 21422U 91042A   25312.45933929  .00002728  00000+0  21977-3 0  9991
2 21422  82.4989 200.5290 0014082 106.0603 254.2173 14.99499500845025
SL-14 R/B               
1 21423U 91042B   25312.47624810  .00000626  00000+0  76498-4 0  9994
2 21423  82.4924 333.8583 0015506 280.5125  79.4342 14.81691342835123
ERS-1                   
1 21574U 91050A   25312.46552457  .00000514  00000+0  17943-3 0  9991
2 21574  98.7925 322.6597 0031635 200.0982 159.8961 14.39323990798291
ARIANE 40 R/B           
1 21610U 91050F   25312.38863189  .00000579  00000+0  18619-3 0  9992
2 21610  98.2216   4.0509 0004321  85.8771 274.2914 14.42767708801503
INTERCOSMOS 25          
1 21819U 91086A   25312.28911922  .00001575  00000+0  30573-3 0  9990
2 21819  82.6088  23.3986 1488569  18.6491 346.3606 12.11576629481984
SL-8 R/B                
1 21876U 92008B   25312.51215786  .00000140  00000+0  12788-3 0  9994
2 21876  82.9290 357.9051 0036050 112.4905 359.2438 13.75948371692753
SL-8 R/B                
1 21938U 92020B   25312.37379005  .00000073  00000+0  60391-4 0  9995
2 21938  82.9305 243.8347 0027645 277.2922 202.4194 13.75520553684453
USA 81                  
1 21949U 92023A   25312.24367534  .00000302  00000+0  10469-3 0  9995
2 21949  85.0115 201.4655 0002706  79.9362 280.2136 14.32307651 77403
COSMOS 2219             
1 22219U 92076A   25312.34534897  .00000260  00000+0  16125-3 0  9991
2 22219  71.0604 271.7272 0017364  18.3760 341.7986 14.14063675701227
SL-16 R/B               
1 22220U 92076B   25312.47592453  .00000188  00000+0  11785-3 0  9995
2 22220  70.9994  83.7038 0015149 278.5581 143.2170 14.16834315704660
COSMOS 2221             
1 22236U 92080A   25312.29654431  .00003354  00000+0  29984-3 0  9990
2 22236  82.5070  35.2819 0013428 237.1321 122.8609 14.95553308762640
