CCSDS_OMM_VERS = 2.0
CREATION_DATE  = 
ORIGINATOR     = 

OBJECT_NAME    = OKEAN-3
OBJECT_ID      = 1991-039A
CENTER_NAME    = EARTH
REF_FRAME      = TEME
TIME_SYSTEM    = UTC
MEAN_ELEMENT_THEORY = SGP/SGP4

EPOCH          = 2025-11-08T11:36:59.529312
MEAN_MOTION    = 15.03766763
ECCENTRICITY   = .0015035
INCLINATION    = 82.5162
RA_OF_ASC_NODE = 94.1936
ARG_OF_PERICENTER = 27.1690
MEAN_ANOMALY   = 333.0319

EPHEMERIS_TYPE = 0
CLASSIFICATION_TYPE = U
NORAD_CAT_ID   = 21397
ELEMENT_SET_NO = 999
REV_AT_EPOCH   = 84681
BSTAR          = .40529E-3
MEAN_MOTION_DOT = .5604E-4
MEAN_MOTION_DDOT = 0

CCSDS_OMM_VERS = 2.0
CREATION_DATE  = 
ORIGINATOR     = 

OBJECT_NAME    = COSMOS 2151
OBJECT_ID      = 1991-042A
CENTER_NAME    = EARTH
REF_FRAME      = TEME
TIME_SYSTEM    = UTC
MEAN_ELEMENT_THEORY = SGP/SGP4

EPOCH          = 2025-11-08T11:01:26.914656
MEAN_MOTION    = 14.99499500
ECCENTRICITY   = .0014082
INCLINATION    = 82.4989
RA_OF_ASC_NODE = 200.5290
ARG_OF_PERICENTER = 106.0603
MEAN_ANOMALY   = 254.2173

EPHEMERIS_TYPE = 0
CLASSIFICATION_TYPE = U
NORAD_CAT_ID   = 21422
ELEMENT_SET_NO = 999
REV_AT_EPOCH   = 84502
BSTAR          = .21977E-3
MEAN_MOTION_DOT = .2728E-4
MEAN_MOTION_DDOT = 0

CCSDS_OMM_VERS = 2.0
CREATION_DATE  = 
ORIGINATOR     = 

OBJECT_NAME    = SL-14 R/B
OBJECT_ID      = 1991-042B
CENTER_NAME    = EARTH
REF_FRAME      = TEME
TIME_SYSTEM    = UTC
MEAN_ELEMENT_THEORY = SGP/SGP4

EPOCH          = 2025-11-08T11:25:47.835840
MEAN_MOTION    = 14.81691342
ECCENTRICITY   = .0015506
INCLINATION    = 82.4924
RA_OF_ASC_NODE = 333.8583
ARG_OF_PERICENTER = 280.5125
MEAN_ANOMALY   = 79.4342

EPHEMERIS_TYPE = 0
CLASSIFICATION_TYPE = U
NORAD_CAT_ID   = 21423
ELEMENT_SET_NO = 999
REV_AT_EPOCH   = 83512
BSTAR          = .76498E-4
MEAN_MOTION_DOT = .626E-5
MEAN_MOTION_DDOT = 0

CCSDS_OMM_VERS = 2.0
CREATION_DATE  = 
ORIGINATOR     = 

OBJECT_NAME    = ERS-1
OBJECT_ID      = 1991-050A
CENTER_NAME    = EARTH
REF_FRAME      = TEME
TIME_SYSTEM    = UTC
MEAN_ELEMENT_THEORY = SGP/SGP4

EPOCH          = 2025-11-08T11:10:21.322848
MEAN_MOTION    = 14.39323990
ECCENTRICITY   = .0031635
INCLINATION    = 98.7925
RA_OF_ASC_NODE = 322.6597
ARG_OF_PERICENTER = 200.0982
MEAN_ANOMALY   = 159.8961

EPHEMERIS_TYPE = 0
CLASSIFICATION_TYPE = U
NORAD_CAT_ID   = 21574
ELEMENT_SET_NO = 999
REV_AT_EPOCH   = 79829
BSTAR          = .17943E-3
MEAN_MOTION_DOT = .514E-5
MEAN_MOTION_DDOT = 0

CCSDS_OMM_VERS = 2.0
CREATION_DATE  = 
ORIGINATOR     = 

OBJECT_NAME    = ARIANE 40 R/B
OBJECT_ID      = 1991-050F
CENTER_NAME    = EARTH
REF_FRAME      = TEME
TIME_SYSTEM    = UTC
MEAN_ELEMENT_THEORY = SGP/SGP4

EPOCH          = 2025-11-08T09:19:37.795296
MEAN_MOTION    = 14.42767708
ECCENTRICITY   = .0004321
INCLINATION    = 98.2216
RA_OF_ASC_NODE = 4.0509
ARG_OF_PERICENTER = 85.8771
MEAN_ANOMALY   = 274.2914

EPHEMERIS_TYPE = 0
CLASSIFICATION_TYPE = U
NORAD_CAT_ID   = 21610
ELEMENT_SET_NO = 999
REV_AT_EPOCH   = 80150
BSTAR          = .18619E-3
MEAN_MOTION_DOT = .579E-5
MEAN_MOTION_DDOT = 0

CCSDS_OMM_VERS = 2.0
CREATION_DATE  = 
ORIGINATOR     = 

OBJECT_NAME    = INTERCOSMOS 25
OBJECT_ID      = 1991-086A
CENTER_NAME    = EARTH
REF_FRAME      = TEME
TIME_SYSTEM    = UTC
MEAN_ELEMENT_THEORY = SGP/SGP4

EPOCH          = 2025-11-08T06:56:19.900608
MEAN_MOTION    = 12.11576629
ECCENTRICITY   = .14885696
INCLINATION    = 82.6088
RA_OF_ASC_NODE = 23.3986
ARG_OF_PERICENTER = 18.6491
MEAN_ANOMALY   = 346.3606

EPHEMERIS_TYPE = 0
CLASSIFICATION_TYPE = U
NORAD_CAT_ID   = 21819
ELEMENT_SET_NO = 999
REV_AT_EPOCH   = 48198
BSTAR          = .30572787E-3
MEAN_MOTION_DOT = .1575E-4
MEAN_MOTION_DDOT = 0

CCSDS_OMM_VERS = 2.0
CREATION_DATE  = 
ORIGINATOR     = 

OBJECT_NAME    = SL-8 R/B
OBJECT_ID      = 1992-008B
CENTER_NAME    = EARTH
REF_FRAME      = TEME
TIME_SYSTEM    = UTC
MEAN_ELEMENT_THEORY = SGP/SGP4

EPOCH          = 2025-11-08T12:17:30.439104
MEAN_MOTION    = 13.75948371
ECCENTRICITY   = .003605
INCLINATION    = 82.9290
RA_OF_ASC_NODE = 357.9051
ARG_OF_PERICENTER = 112.4905
MEAN_ANOMALY   = 359.2438

EPHEMERIS_TYPE = 0
CLASSIFICATION_TYPE = U
NORAD_CAT_ID   = 21876
ELEMENT_SET_NO = 999
REV_AT_EPOCH   = 69275
BSTAR          = .12788E-3
MEAN_MOTION_DOT = .14E-5
MEAN_MOTION_DDOT = 0

CCSDS_OMM_VERS = 2.0
CREATION_DATE  = 
ORIGINATOR     = 

OBJECT_NAME    = SL-8 R/B
OBJECT_ID      = 1992-020B
CENTER_NAME    = EARTH
REF_FRAME      = TEME
TIME_SYSTEM    = UTC
MEAN_ELEMENT_THEORY = SGP/SGP4

EPOCH          = 2025-11-08T08:58:15.460320
MEAN_MOTION    = 13.75520553
ECCENTRICITY   = .0027645
INCLINATION    = 82.9305
RA_OF_ASC_NODE = 243.8347
ARG_OF_PERICENTER = 277.2922
MEAN_ANOMALY   = 202.4194

EPHEMERIS_TYPE = 0
CLASSIFICATION_TYPE = U
NORAD_CAT_ID   = 21938
ELEMENT_SET_NO = 999
REV_AT_EPOCH   = 68445
BSTAR          = .60391E-4
MEAN_MOTION_DOT = .73E-6
MEAN_MOTION_DDOT = 0

CCSDS_OMM_VERS = 2.0
CREATION_DATE  = 
ORIGINATOR     = 

OBJECT_NAME    = USA 81
OBJECT_ID      = 1992-023A
CENTER_NAME    = EARTH
REF_FRAME      = TEME
TIME_SYSTEM    = UTC
MEAN_ELEMENT_THEORY = SGP/SGP4

EPOCH          = 2025-11-08T05:50:53.549376
MEAN_MOTION    = 14.32307651
ECCENTRICITY   = .00027063
INCLINATION    = 85.0115
RA_OF_ASC_NODE = 201.4655
ARG_OF_PERICENTER = 79.9362
MEAN_ANOMALY   = 280.2136

EPHEMERIS_TYPE = 0
CLASSIFICATION_TYPE = U
NORAD_CAT_ID   = 21949
ELEMENT_SET_NO = 999
REV_AT_EPOCH   = 7740
BSTAR          = .10468765E-3
MEAN_MOTION_DOT = .302E-5
MEAN_MOTION_DDOT = 0

CCSDS_OMM_VERS = 2.0
CREATION_DATE  = 
ORIGINATOR     = 

OBJECT_NAME    = COSMOS 2219
OBJECT_ID      = 1992-076A
CENTER_NAME    = EARTH
REF_FRAME      = TEME
TIME_SYSTEM    = UTC
MEAN_ELEMENT_THEORY = SGP/SGP4

EPOCH          = 2025-11-08T08:17:18.151008
MEAN_MOTION    = 14.14063675
ECCENTRICITY   = .0017364
INCLINATION    = 71.0604
RA_OF_ASC_NODE = 271.7272
ARG_OF_PERICENTER = 18.3760
MEAN_ANOMALY   = 341.7986

EPHEMERIS_TYPE = 0
CLASSIFICATION_TYPE = U
NORAD_CAT_ID   = 22219
ELEMENT_SET_NO = 999
REV_AT_EPOCH   = 70122
BSTAR          = .16125E-3
MEAN_MOTION_DOT = .26E-5
MEAN_MOTION_DDOT = 0

CCSDS_OMM_VERS = 2.0
CREATION_DATE  = 
ORIGINATOR     = 

OBJECT_NAME    = SL-16 R/B
OBJECT_ID      = 1992-076B
CENTER_NAME    = EARTH
REF_FRAME      = TEME
TIME_SYSTEM    = UTC
MEAN_ELEMENT_THEORY = SGP/SGP4

EPOCH          = 2025-11-08T11:25:19.879392
MEAN_MOTION    = 14.16834315
ECCENTRICITY   = .0015149
INCLINATION    = 70.9994
RA_OF_ASC_NODE = 83.7038
ARG_OF_PERICENTER = 278.5581
MEAN_ANOMALY   = 143.2170

EPHEMERIS_TYPE = 0
CLASSIFICATION_TYPE = U
NORAD_CAT_ID   = 22220
ELEMENT_SET_NO = 999
REV_AT_EPOCH   = 70466
BSTAR          = .11785E-3
MEAN_MOTION_DOT = .188E-5
MEAN_MOTION_DDOT = 0

CCSDS_OMM_VERS = 2.0
CREATION_DATE  = 
ORIGINATOR     = 

OBJECT_NAME    = COSMOS 2221
OBJECT_ID      = 1992-080A
CENTER_NAME    = EARTH
REF_FRAME      = TEME
TIME_SYSTEM    = UTC
MEAN_ELEMENT_THEORY = SGP/SGP4

EPOCH          = 2025-11-08T07:07:01.428384
MEAN_MOTION    = 14.95553308
ECCENTRICITY   = .00134284
INCLINATION    = 82.5070
RA_OF_ASC_NODE = 35.2819
ARG_OF_PERICENTER = 237.1321
MEAN_ANOMALY   = 122.8609

EPHEMERIS_TYPE = 0
CLASSIFICATION_TYPE = U
NORAD_CAT_ID   = 22236
ELEMENT_SET_NO = 999
REV_AT_EPOCH   = 76264
BSTAR          = .29983979E-3
MEAN_MOTION_DOT = .3354E-4
MEAN_MOTION_DDOT = 0

